[{"OBJECT_NAME":"ONEWEB-0629","OBJECT_ID":"2023-004AG","EPOCH":"2026-01-24T06:58:09.043680","MEAN_MOTION":13.17650982,"ECCENTRICITY":0.00019896,"INCLINATION":87.9089,"RA_OF_ASC_NODE":34.4705,"ARG_OF_PERICENTER":81.0547,"MEAN_ANOMALY":279.081,"EPHEMERIS_TYPE":0,"CLASSIFICATION_TYPE":"U","NORAD_CAT_ID":55170,"ELEMENT_SET_NO":999,"REV_AT_EPOCH":14863,"BSTAR":-8.7780026e-5,"MEAN_MOTION_DOT":-2.1e-7,"MEAN_MOTION_DDOT":0},{"OBJECT_NAME":"ONEWEB-0631","OBJECT_ID":"2023-004AH","EPOCH":"2026-01-24T05:44:35.948544","MEAN_MOTION":13.18686269,"ECCENTRICITY":0.0001864,"INCLINATION":87.9201,"RA_OF_ASC_NODE":4.0108,"ARG_OF_PERICENTER":102.0199,"MEAN_ANOMALY":258.1142,"EPHEMERIS_TYPE":0,"CLASSIFICATION_TYPE":"U","NORAD_CAT_ID":55171,"ELEMENT_SET_NO":999,"REV_AT_EPOCH":15070,"BSTAR":-0.00012991769,"MEAN_MOTION_DOT":-3.8e-7,"MEAN_MOTION_DDOT":0},{"OBJECT_NAME":"ONEWEB-0709","OBJECT_ID":"2023-004AJ","EPOCH":"2026-01-23T13:05:45.033504","MEAN_MOTION":13.11416197,"ECCENTRICITY":0.00014519,"INCLINATION":87.8814,"RA_OF_ASC_NODE":49.8743,"ARG_OF_PERICENTER":123.3748,"MEAN_ANOMALY":236.7519,"EPHEMERIS_TYPE":0,"CLASSIFICATION_TYPE":"U","NORAD_CAT_ID":55172,"ELEMENT_SET_NO":999,"REV_AT_EPOCH":14691,"BSTAR":-0.00095485031,"MEAN_MOTION_DOT":-3.26e-6,"MEAN_MOTION_DDOT":0},{"OBJECT_NAME":"ONEWEB-0710","OBJECT_ID":"2023-004AK","EPOCH":"2026-01-24T07:18:48.492288","MEAN_MOTION":13.17650904,"ECCENTRICITY":0.00020235,"INCLINATION":87.9083,"RA_OF_ASC_NODE":34.4618,"ARG_OF_PERICENTER":92.299,"MEAN_ANOMALY":267.8373,"EPHEMERIS_TYPE":0,"CLASSIFICATION_TYPE":"U","NORAD_CAT_ID":55173,"ELEMENT_SET_NO":999,"REV_AT_EPOCH":14863,"BSTAR":0.00011465758,"MEAN_MOTION_DOT":5.7e-7,"MEAN_MOTION_DDOT":0},{"OBJECT_NAME":"ONEWEB-0711","OBJECT_ID":"2023-004AL","EPOCH":"2026-01-23T19:43:44.122080","MEAN_MOTION":13.11416351,"ECCENTRICITY":0.00026307,"INCLINATION":87.8825,"RA_OF_ASC_NODE":49.7965,"ARG_OF_PERICENTER":95.514,"MEAN_ANOMALY":264.6288,"EPHEMERIS_TYPE":0,"CLASSIFICATION_TYPE":"U","NORAD_CAT_ID":55174,"ELEMENT_SET_NO":999,"REV_AT_EPOCH":14691,"BSTAR":0.0013005337,"MEAN_MOTION_DOT":4.74e-6,"MEAN_MOTION_DDOT":0},{"OBJECT_NAME":"ONEWEB-0713","OBJECT_ID":"2023-004AM","EPOCH":"2026-01-24T07:09:48.064608","MEAN_MOTION":13.11418182,"ECCENTRICITY":0.00022807,"INCLINATION":87.8825,"RA_OF_ASC_NODE":49.7024,"ARG_OF_PERICENTER":95.7579,"MEAN_ANOMALY":264.3809,"EPHEMERIS_TYPE":0,"CLASSIFICATION_TYPE":"U","NORAD_CAT_ID":55175,"ELEMENT_SET_NO":999,"REV_AT_EPOCH":14696,"BSTAR":0.00066685155,"MEAN_MOTION_DOT":2.49e-6,"MEAN_MOTION_DDOT":0},{"OBJECT_NAME":"ONEWEB-0715","OBJECT_ID":"2023-004AN","EPOCH":"2026-01-24T03:22:43.550976","MEAN_MOTION":13.11415846,"ECCENTRICITY":0.00018933,"INCLINATION":87.8817,"RA_OF_ASC_NODE":49.7344,"ARG_OF_PERICENTER":117.3061,"MEAN_ANOMALY":242.826,"EPHEMERIS_TYPE":0,"CLASSIFICATION_TYPE":"U","NORAD_CAT_ID":55176,"ELEMENT_SET_NO":999,"REV_AT_EPOCH":14698,"BSTAR":0.0010649622,"MEAN_MOTION_DOT":3.9e-6,"MEAN_MOTION_DDOT":0},{"OBJECT_NAME":"ONEWEB-0716","OBJECT_ID":"2023-004AP","EPOCH":"2026-01-24T07:09:06.336864","MEAN_MOTION":13.17649135,"ECCENTRICITY":0.000165,"INCLINATION":87.9081,"RA_OF_ASC_NODE":34.463,"ARG_OF_PERICENTER":85.0193,"MEAN_ANOMALY":275.1127,"EPHEMERIS_TYPE":0,"CLASSIFICATION_TYPE":"U","NORAD_CAT_ID":55177,"ELEMENT_SET_NO":999,"REV_AT_EPOCH":14863,"BSTAR":2.9274967e-5,"MEAN_MOTION_DOT":2.4e-7,"MEAN_MOTION_DDOT":0},{"OBJECT_NAME":"ONEWEB-0717","OBJECT_ID":"2023-004AQ","EPOCH":"2026-01-24T06:44:48.510528","MEAN_MOTION":13.17649397,"ECCENTRICITY":0.00025181,"INCLINATION":87.9095,"RA_OF_ASC_NODE":34.4415,"ARG_OF_PERICENTER":96.2478,"MEAN_ANOMALY":263.894,"EPHEMERIS_TYPE":0,"CLASSIFICATION_TYPE":"U","NORAD_CAT_ID":55178,"ELEMENT_SET_NO":999,"REV_AT_EPOCH":14868,"BSTAR":-4.9687949e-5,"MEAN_MOTION_DOT":-6.0e-8,"MEAN_MOTION_DDOT":0},{"OBJECT_NAME":"ONEWEB-0719","OBJECT_ID":"2023-004AR","EPOCH":"2026-01-24T06:59:24.196992","MEAN_MOTION":13.17647929,"ECCENTRICITY":0.00018447,"INCLINATION":87.9094,"RA_OF_ASC_NODE":34.4216,"ARG_OF_PERICENTER":84.4432,"MEAN_ANOMALY":275.691,"EPHEMERIS_TYPE":0,"CLASSIFICATION_TYPE":"U","NORAD_CAT_ID":55179,"ELEMENT_SET_NO":999,"REV_AT_EPOCH":14863,"BSTAR":-6.9399814e-5,"MEAN_MOTION_DOT":-1.4e-7,"MEAN_MOTION_DDOT":0},{"OBJECT_NAME":"ONEWEB-0530","OBJECT_ID":"2023-029A","EPOCH":"2026-01-24T05:28:46.010784","MEAN_MOTION":13.20773356,"ECCENTRICITY":0.00022008,"INCLINATION":87.9223,"RA_OF_ASC_NODE":303.2052,"ARG_OF_PERICENTER":76.3202,"MEAN_ANOMALY":283.8177,"EPHEMERIS_TYPE":0,"CLASSIFICATION_TYPE":"U","NORAD_CAT_ID":55796,"ELEMENT_SET_NO":999,"REV_AT_EPOCH":14214,"BSTAR":0.00021903709,"MEAN_MOTION_DOT":1.02e-6,"MEAN_MOTION_DDOT":0},{"OBJECT_NAME":"ONEWEB-0534","OBJECT_ID":"2023-029B","EPOCH":"2026-01-24T01:32:24.779616","MEAN_MOTION":13.20773349,"ECCENTRICITY":0.00016379,"INCLINATION":87.9222,"RA_OF_ASC_NODE":303.2373,"ARG_OF_PERICENTER":72.4685,"MEAN_ANOMALY":287.6627,"EPHEMERIS_TYPE":0,"CLASSIFICATION_TYPE":"U","NORAD_CAT_ID":55797,"ELEMENT_SET_NO":999,"REV_AT_EPOCH":14212,"BSTAR":-7.370357e-5,"MEAN_MOTION_DOT":-1.7e-7,"MEAN_MOTION_DDOT":0},{"OBJECT_NAME":"ONEWEB-0556","OBJECT_ID":"2023-029C","EPOCH":"2026-01-24T05:19:40.488960","MEAN_MOTION":13.20771793,"ECCENTRICITY":0.00021066,"INCLINATION":87.9225,"RA_OF_ASC_NODE":303.2073,"ARG_OF_PERICENTER":49.6761,"MEAN_ANOMALY":310.4556,"EPHEMERIS_TYPE":0,"CLASSIFICATION_TYPE":"U","NORAD_CAT_ID":55798,"ELEMENT_SET_NO":999,"REV_AT_EPOCH":14214,"BSTAR":8.7527983e-5,"MEAN_MOTION_DOT":4.9e-7,"MEAN_MOTION_DDOT":0},{"OBJECT_NAME":"ONEWEB-0562","OBJECT_ID":"2023-029D","EPOCH":"2026-01-24T05:01:29.768448","MEAN_MOTION":13.2077291,"ECCENTRICITY":0.00025324,"INCLINATION":87.9222,"RA_OF_ASC_NODE":303.1906,"ARG_OF_PERICENTER":68.3523,"MEAN_ANOMALY":291.788,"EPHEMERIS_TYPE":0,"CLASSIFICATION_TYPE":"U","NORAD_CAT_ID":55799,"ELEMENT_SET_NO":999,"REV_AT_EPOCH":14214,"BSTAR":0.000186605,"MEAN_MOTION_DOT":8.9e-7,"MEAN_MOTION_DDOT":0},{"OBJECT_NAME":"ONEWEB-0563","OBJECT_ID":"2023-029E","EPOCH":"2026-01-24T04:52:24.314016","MEAN_MOTION":13.20773696,"ECCENTRICITY":0.00015568,"INCLINATION":87.9227,"RA_OF_ASC_NODE":303.2212,"ARG_OF_PERICENTER":67.6159,"MEAN_ANOMALY":292.5139,"EPHEMERIS_TYPE":0,"CLASSIFICATION_TYPE":"U","NORAD_CAT_ID":55800,"ELEMENT_SET_NO":999,"REV_AT_EPOCH":14213,"BSTAR":0.00034186029,"MEAN_MOTION_DOT":1.52e-6,"MEAN_MOTION_DDOT":0},{"OBJECT_NAME":"ONEWEB-0564","OBJECT_ID":"2023-029F","EPOCH":"2026-01-24T04:43:18.985728","MEAN_MOTION":13.20774146,"ECCENTRICITY":0.00020524,"INCLINATION":87.922,"RA_OF_ASC_NODE":303.1959,"ARG_OF_PERICENTER":74.1471,"MEAN_ANOMALY":285.9888,"EPHEMERIS_TYPE":0,"CLASSIFICATION_TYPE":"U","NORAD_CAT_ID":55801,"ELEMENT_SET_NO":999,"REV_AT_EPOCH":14214,"BSTAR":0.00033100509,"MEAN_MOTION_DOT":1.48e-6,"MEAN_MOTION_DDOT":0},{"OBJECT_NAME":"ONEWEB-0638","OBJECT_ID":"2023-029G","EPOCH":"2026-01-24T05:25:27.238944","MEAN_MOTION":13.14492895,"ECCENTRICITY":0.00022873,"INCLINATION":87.903,"RA_OF_ASC_NODE":318.4579,"ARG_OF_PERICENTER":77.3919,"MEAN_ANOMALY":282.7467,"EPHEMERIS_TYPE":0,"CLASSIFICATION_TYPE":"U","NORAD_CAT_ID":55802,"ELEMENT_SET_NO":999,"REV_AT_EPOCH":14048,"BSTAR":0.0089724447,"MEAN_MOTION_DOT":3.34e-5,"MEAN_MOTION_DDOT":0}]
