ONEWEB-0629             
1 55170U 23004AG  26024.29038245 -.00000021  00000+0 -87780-4 0  9992
2 55170  87.9089  34.4705 0001989  81.0547 279.0810 13.17650982148637
ONEWEB-0631             
1 55171U 23004AH  26024.23930496 -.00000038  00000+0 -12992-3 0  9996
2 55171  87.9201   4.0108 0001864 102.0199 258.1142 13.18686269150708
ONEWEB-0709             
1 55172U 23004AJ  26023.54566011 -.00000326  00000+0 -95485-3 0  9996
2 55172  87.8814  49.8743 0001451 123.3748 236.7519 13.11416197146910
ONEWEB-0710             
1 55173U 23004AK  26024.30472792  .00000057  00000+0  11466-3 0  9990
2 55173  87.9083  34.4618 0002023  92.2990 267.8373 13.17650904148636
ONEWEB-0711             
1 55174U 23004AL  26023.82203845  .00000474  00000+0  13005-2 0  9991
2 55174  87.8825  49.7965 0002630  95.5140 264.6288 13.11416351146910
ONEWEB-0713             
1 55175U 23004AM  26024.29847297  .00000249  00000+0  66685-3 0  9992
2 55175  87.8825  49.7024 0002280  95.7579 264.3809 13.11418182146961
ONEWEB-0715             
1 55176U 23004AN  26024.14078184  .00000390  00000+0  10650-2 0  9995
2 55176  87.8817  49.7344 0001893 117.3061 242.8260 13.11415846146982
ONEWEB-0716             
1 55177U 23004AP  26024.29799001  .00000024  00000+0  29275-4 0  9999
2 55177  87.9081  34.4630 0001650  85.0193 275.1127 13.17649135148635
ONEWEB-0717             
1 55178U 23004AQ  26024.28111702 -.00000006  00000+0 -49688-4 0  9997
2 55178  87.9095  34.4415 0002518  96.2478 263.8940 13.17649397148688
ONEWEB-0719             
1 55179U 23004AR  26024.29125228 -.00000014  00000+0 -69400-4 0  9990
2 55179  87.9094  34.4216 0001844  84.4432 275.6910 13.17647929148639
ONEWEB-0530             
1 55796U 23029A   26024.22831031  .00000102  00000+0  21904-3 0  9993
2 55796  87.9223 303.2052 0002200  76.3202 283.8177 13.20773356142149
ONEWEB-0534             
1 55797U 23029B   26024.06417569 -.00000017  00000+0 -73704-4 0  9995
2 55797  87.9222 303.2373 0001637  72.4685 287.6627 13.20773349142122
ONEWEB-0556             
1 55798U 23029C   26024.22199640  .00000049  00000+0  87528-4 0  9993
2 55798  87.9225 303.2073 0002106  49.6761 310.4556 13.20771793142145
ONEWEB-0562             
1 55799U 23029D   26024.20937232  .00000089  00000+0  18661-3 0  9994
2 55799  87.9222 303.1906 0002532  68.3523 291.7880 13.20772910142147
ONEWEB-0563             
1 55800U 23029E   26024.20305919  .00000152  00000+0  34186-3 0  9999
2 55800  87.9227 303.2212 0001556  67.6159 292.5139 13.20773696142135
ONEWEB-0564             
1 55801U 23029F   26024.19674752  .00000148  00000+0  33101-3 0  9993
2 55801  87.9220 303.1959 0002052  74.1471 285.9888 13.20774146142147
ONEWEB-0638             
1 55802U 23029G   26024.22600971  .00003340  00000+0  89724-2 0  9998
2 55802  87.9030 318.4579 0002287  77.3919 282.7467 13.14492895140480
